SHENZHOU-21 (SZ-21)     
1 66263U 25246A   25305.66377233  .00031710  00000+0  38072-3 0  9998
2 66263  41.4666 266.1848 0006787 305.6533  54.3673 15.60184648257599
